STARLINK-36730          
1 67874U 26034AA  26066.62737311  .00413652  00000+0  19865-2 0  9998
2 67874  53.1595 221.4783 0001025  41.8885 318.2216 15.81025092  3617
STARLINK-36727          
1 67875U 26034AB  26066.62662024  .00339796  00000+0  16475-2 0  9997
2 67875  53.1598 221.4725 0000516  59.4426 300.6648 15.81013881  3614
STARLINK-36743          
1 67876U 26034AC  26066.62587206  .00399490  00000+0  19226-2 0  9990
2 67876  53.1601 221.4675 0001474  23.4909 336.6181 15.81017529  3619
STARLINK-36784          
1 67877U 26034AD  26066.62512263  .00221178  00000+0  10911-2 0  9991
2 67877  53.1603 221.4626 0000937  35.3253 324.7832 15.80963097  3615
STARLINK-36689          
1 67878U 26034AE  26066.62437748  .00609382  00000+0  28675-2 0  9999
2 67878  53.1601 221.4582 0002278 356.3421   3.7585 15.80957930  3616
STARLINK-36818          
1 67879U 26035A   26066.58334491 -.01116163  37039-3 -33412-2 0  9991
2 67879  97.2747 358.7595 0001163  98.4777 276.3035 15.92355439  3410
STARLINK-36821          
1 67880U 26035B   26066.58334491 -.01119484  37279-3 -33349-2 0  9997
2 67880  97.2741 358.7629 0001115  94.0481 288.6403 15.92450147  3412
STARLINK-36808          
1 67881U 26035C   26066.58334491 -.01115741  37037-3 -33285-2 0  9991
2 67881  97.2744 358.7609 0001181  94.5260 283.4599 15.92421696  3413
STARLINK-36817          
1 67882U 26035D   26066.58334491 -.01137787  38444-3 -33776-2 0  9994
2 67882  97.2730 358.7662 0001153  95.3033 296.6216 15.92520187  3411
STARLINK-36856          
1 67883U 26035E   26066.58334491 -.01127253  37770-3 -33534-2 0  9995
2 67883  97.2737 358.7647 0001125  92.3879 295.1692 15.92477815  3417
STARLINK-36842          
1 67884U 26035F   26066.58334491 -.01134569  38259-3 -33605-2 0  9996
2 67884  97.2730 358.7680 0001085  82.3446 313.7208 15.92563378  3412
STARLINK-36826          
1 67885U 26035G   26066.58334491 -.01137875  38491-3 -33591-2 0  9992
2 67885  97.2729 358.7695 0001109  91.5594 307.9913 15.92627757  3410
