CCSDS_OMM_VERS = 2.0
CREATION_DATE  = 
ORIGINATOR     = 

OBJECT_NAME    = STARLINK-36730
OBJECT_ID      = 2026-034AA
CENTER_NAME    = EARTH
REF_FRAME      = TEME
TIME_SYSTEM    = UTC
MEAN_ELEMENT_THEORY = SGP/SGP4

EPOCH          = 2026-03-07T15:03:25.036704
MEAN_MOTION    = 15.81025092
ECCENTRICITY   = .00010258
INCLINATION    = 53.1595
RA_OF_ASC_NODE = 221.4783
ARG_OF_PERICENTER = 41.8885
MEAN_ANOMALY   = 318.2216

EPHEMERIS_TYPE = 0
CLASSIFICATION_TYPE = U
NORAD_CAT_ID   = 67874
ELEMENT_SET_NO = 999
REV_AT_EPOCH   = 361
BSTAR          = .19865435E-2
MEAN_MOTION_DOT = .413652E-2
MEAN_MOTION_DDOT = 0

CCSDS_OMM_VERS = 2.0
CREATION_DATE  = 
ORIGINATOR     = 

OBJECT_NAME    = STARLINK-36727
OBJECT_ID      = 2026-034AB
CENTER_NAME    = EARTH
REF_FRAME      = TEME
TIME_SYSTEM    = UTC
MEAN_ELEMENT_THEORY = SGP/SGP4

EPOCH          = 2026-03-07T15:02:19.988736
MEAN_MOTION    = 15.81013881
ECCENTRICITY   = .00005165
INCLINATION    = 53.1598
RA_OF_ASC_NODE = 221.4725
ARG_OF_PERICENTER = 59.4426
MEAN_ANOMALY   = 300.6648

EPHEMERIS_TYPE = 0
CLASSIFICATION_TYPE = U
NORAD_CAT_ID   = 67875
ELEMENT_SET_NO = 999
REV_AT_EPOCH   = 361
BSTAR          = .1647459E-2
MEAN_MOTION_DOT = .339796E-2
MEAN_MOTION_DDOT = 0

CCSDS_OMM_VERS = 2.0
CREATION_DATE  = 
ORIGINATOR     = 

OBJECT_NAME    = STARLINK-36743
OBJECT_ID      = 2026-034AC
CENTER_NAME    = EARTH
REF_FRAME      = TEME
TIME_SYSTEM    = UTC
MEAN_ELEMENT_THEORY = SGP/SGP4

EPOCH          = 2026-03-07T15:01:15.345984
MEAN_MOTION    = 15.81017529
ECCENTRICITY   = .00014747
INCLINATION    = 53.1601
RA_OF_ASC_NODE = 221.4675
ARG_OF_PERICENTER = 23.4909
MEAN_ANOMALY   = 336.6181

EPHEMERIS_TYPE = 0
CLASSIFICATION_TYPE = U
NORAD_CAT_ID   = 67876
ELEMENT_SET_NO = 999
REV_AT_EPOCH   = 361
BSTAR          = .19225706E-2
MEAN_MOTION_DOT = .39949E-2
MEAN_MOTION_DDOT = 0

CCSDS_OMM_VERS = 2.0
CREATION_DATE  = 
ORIGINATOR     = 

OBJECT_NAME    = STARLINK-36784
OBJECT_ID      = 2026-034AD
CENTER_NAME    = EARTH
REF_FRAME      = TEME
TIME_SYSTEM    = UTC
MEAN_ELEMENT_THEORY = SGP/SGP4

EPOCH          = 2026-03-07T15:00:10.595232
MEAN_MOTION    = 15.80963097
ECCENTRICITY   = .00009375
INCLINATION    = 53.1603
RA_OF_ASC_NODE = 221.4626
ARG_OF_PERICENTER = 35.3253
MEAN_ANOMALY   = 324.7832

EPHEMERIS_TYPE = 0
CLASSIFICATION_TYPE = U
NORAD_CAT_ID   = 67877
ELEMENT_SET_NO = 999
REV_AT_EPOCH   = 361
BSTAR          = .10911343E-2
MEAN_MOTION_DOT = .221178E-2
MEAN_MOTION_DDOT = 0

CCSDS_OMM_VERS = 2.0
CREATION_DATE  = 
ORIGINATOR     = 

OBJECT_NAME    = STARLINK-36689
OBJECT_ID      = 2026-034AE
CENTER_NAME    = EARTH
REF_FRAME      = TEME
TIME_SYSTEM    = UTC
MEAN_ELEMENT_THEORY = SGP/SGP4

EPOCH          = 2026-03-07T14:59:06.214272
MEAN_MOTION    = 15.80957930
ECCENTRICITY   = .00022787
INCLINATION    = 53.1601
RA_OF_ASC_NODE = 221.4582
ARG_OF_PERICENTER = 356.3421
MEAN_ANOMALY   = 3.7585

EPHEMERIS_TYPE = 0
CLASSIFICATION_TYPE = U
NORAD_CAT_ID   = 67878
ELEMENT_SET_NO = 999
REV_AT_EPOCH   = 361
BSTAR          = .28674515E-2
MEAN_MOTION_DOT = .609382E-2
MEAN_MOTION_DDOT = 0

CCSDS_OMM_VERS = 2.0
CREATION_DATE  = 
ORIGINATOR     = 

OBJECT_NAME    = STARLINK-36818
OBJECT_ID      = 2026-035A
CENTER_NAME    = EARTH
REF_FRAME      = TEME
TIME_SYSTEM    = UTC
MEAN_ELEMENT_THEORY = SGP/SGP4

EPOCH          = 2026-03-07T14:00:01.000224
MEAN_MOTION    = 15.92355439
ECCENTRICITY   = .0001163
INCLINATION    = 97.2747
RA_OF_ASC_NODE = 358.7595
ARG_OF_PERICENTER = 98.4777
MEAN_ANOMALY   = 276.3035

EPHEMERIS_TYPE = 0
CLASSIFICATION_TYPE = U
NORAD_CAT_ID   = 67879
ELEMENT_SET_NO = 999
REV_AT_EPOCH   = 341
BSTAR          = -.33411656E-2
MEAN_MOTION_DOT = -.1116163E-1
MEAN_MOTION_DDOT = .37038519E-3

CCSDS_OMM_VERS = 2.0
CREATION_DATE  = 
ORIGINATOR     = 

OBJECT_NAME    = STARLINK-36821
OBJECT_ID      = 2026-035B
CENTER_NAME    = EARTH
REF_FRAME      = TEME
TIME_SYSTEM    = UTC
MEAN_ELEMENT_THEORY = SGP/SGP4

EPOCH          = 2026-03-07T14:00:01.000224
MEAN_MOTION    = 15.92450147
ECCENTRICITY   = .00011156
INCLINATION    = 97.2741
RA_OF_ASC_NODE = 358.7629
ARG_OF_PERICENTER = 94.0481
MEAN_ANOMALY   = 288.6403

EPHEMERIS_TYPE = 0
CLASSIFICATION_TYPE = U
NORAD_CAT_ID   = 67880
ELEMENT_SET_NO = 999
REV_AT_EPOCH   = 341
BSTAR          = -.33348677E-2
MEAN_MOTION_DOT = -.1119484E-1
MEAN_MOTION_DDOT = .37278826E-3

CCSDS_OMM_VERS = 2.0
CREATION_DATE  = 
ORIGINATOR     = 

OBJECT_NAME    = STARLINK-36808
OBJECT_ID      = 2026-035C
CENTER_NAME    = EARTH
REF_FRAME      = TEME
TIME_SYSTEM    = UTC
MEAN_ELEMENT_THEORY = SGP/SGP4

EPOCH          = 2026-03-07T14:00:01.000224
MEAN_MOTION    = 15.92421696
ECCENTRICITY   = .00011816
INCLINATION    = 97.2744
RA_OF_ASC_NODE = 358.7609
ARG_OF_PERICENTER = 94.5260
MEAN_ANOMALY   = 283.4599

EPHEMERIS_TYPE = 0
CLASSIFICATION_TYPE = U
NORAD_CAT_ID   = 67881
ELEMENT_SET_NO = 999
REV_AT_EPOCH   = 341
BSTAR          = -.33284889E-2
MEAN_MOTION_DOT = -.1115741E-1
MEAN_MOTION_DDOT = .37037452E-3

CCSDS_OMM_VERS = 2.0
CREATION_DATE  = 
ORIGINATOR     = 

OBJECT_NAME    = STARLINK-36817
OBJECT_ID      = 2026-035D
CENTER_NAME    = EARTH
REF_FRAME      = TEME
TIME_SYSTEM    = UTC
MEAN_ELEMENT_THEORY = SGP/SGP4

EPOCH          = 2026-03-07T14:00:01.000224
MEAN_MOTION    = 15.92520187
ECCENTRICITY   = .00011538
INCLINATION    = 97.2730
RA_OF_ASC_NODE = 358.7662
ARG_OF_PERICENTER = 95.3033
MEAN_ANOMALY   = 296.6216

EPHEMERIS_TYPE = 0
CLASSIFICATION_TYPE = U
NORAD_CAT_ID   = 67882
ELEMENT_SET_NO = 999
REV_AT_EPOCH   = 341
BSTAR          = -.33775963E-2
MEAN_MOTION_DOT = -.1137787E-1
MEAN_MOTION_DDOT = .38443604E-3

CCSDS_OMM_VERS = 2.0
CREATION_DATE  = 
ORIGINATOR     = 

OBJECT_NAME    = STARLINK-36856
OBJECT_ID      = 2026-035E
CENTER_NAME    = EARTH
REF_FRAME      = TEME
TIME_SYSTEM    = UTC
MEAN_ELEMENT_THEORY = SGP/SGP4

EPOCH          = 2026-03-07T14:00:01.000224
MEAN_MOTION    = 15.92477815
ECCENTRICITY   = .00011251
INCLINATION    = 97.2737
RA_OF_ASC_NODE = 358.7647
ARG_OF_PERICENTER = 92.3879
MEAN_ANOMALY   = 295.1692

EPHEMERIS_TYPE = 0
CLASSIFICATION_TYPE = U
NORAD_CAT_ID   = 67883
ELEMENT_SET_NO = 999
REV_AT_EPOCH   = 341
BSTAR          = -.33534047E-2
MEAN_MOTION_DOT = -.1127253E-1
MEAN_MOTION_DDOT = .37770395E-3

CCSDS_OMM_VERS = 2.0
CREATION_DATE  = 
ORIGINATOR     = 

OBJECT_NAME    = STARLINK-36842
OBJECT_ID      = 2026-035F
CENTER_NAME    = EARTH
REF_FRAME      = TEME
TIME_SYSTEM    = UTC
MEAN_ELEMENT_THEORY = SGP/SGP4

EPOCH          = 2026-03-07T14:00:01.000224
MEAN_MOTION    = 15.92563378
ECCENTRICITY   = .0001085
INCLINATION    = 97.2730
RA_OF_ASC_NODE = 358.7680
ARG_OF_PERICENTER = 82.3446
MEAN_ANOMALY   = 313.7208

EPHEMERIS_TYPE = 0
CLASSIFICATION_TYPE = U
NORAD_CAT_ID   = 67884
ELEMENT_SET_NO = 999
REV_AT_EPOCH   = 341
BSTAR          = -.33604766E-2
MEAN_MOTION_DOT = -.1134569E-1
MEAN_MOTION_DDOT = .38259335E-3

CCSDS_OMM_VERS = 2.0
CREATION_DATE  = 
ORIGINATOR     = 

OBJECT_NAME    = STARLINK-36826
OBJECT_ID      = 2026-035G
CENTER_NAME    = EARTH
REF_FRAME      = TEME
TIME_SYSTEM    = UTC
MEAN_ELEMENT_THEORY = SGP/SGP4

EPOCH          = 2026-03-07T14:00:01.000224
MEAN_MOTION    = 15.92627757
ECCENTRICITY   = .00011095
INCLINATION    = 97.2729
RA_OF_ASC_NODE = 358.7695
ARG_OF_PERICENTER = 91.5594
MEAN_ANOMALY   = 307.9913

EPHEMERIS_TYPE = 0
CLASSIFICATION_TYPE = U
NORAD_CAT_ID   = 67885
ELEMENT_SET_NO = 999
REV_AT_EPOCH   = 341
BSTAR          = -.33591405E-2
MEAN_MOTION_DOT = -.1137875E-1
MEAN_MOTION_DDOT = .38491053E-3

